OBJECT_NAME,OBJECT_ID,EPOCH,MEAN_MOTION,ECCENTRICITY,INCLINATION,RA_OF_ASC_NODE,ARG_OF_PERICENTER,MEAN_ANOMALY,EPHEMERIS_TYPE,CLASSIFICATION_TYPE,NORAD_CAT_ID,ELEMENT_SET_NO,REV_AT_EPOCH,BSTAR,MEAN_MOTION_DOT,MEAN_MOTION_DDOT
SAUDISAT 2,2004-025F,2026-07-11T19:48:59.987520,14.56697171,.00239004,98.5518,193.4453,218.7819,141.1664,0,U,28371,999,16933,.37868363E-4,.12E-5,0
COSMOS 2407,2004-028A,2026-07-11T17:04:16.231008,13.76336372,.00390672,82.9588,56.6682,181.8019,243.1850,0,U,28380,999,10325,.25309837E-4,.4E-6,0
COSMOS 2414,2005-002A,2026-07-11T23:24:50.995008,13.87928061,.0038701,82.9486,24.8912,258.3745,101.3074,0,U,28521,999,8725,.38145E-4,.61E-6,0
INMARSAT 4-F1,2005-009A,2026-07-11T17:49:37.578720,1.00270973,.00024991,5.2002,42.7797,72.5823,259.7934,0,U,28628,999,7791,0,.32E-6,0
SJ-7,2005-024A,2026-07-12T01:52:24.944736,15.21907713,.001384,97.7279,223.8554,308.7466,51.2532,0,U,28737,999,15181,.19931E-3,.4474E-4,0
CUBESAT XI-V,2005-043F,2026-07-11T09:17:30.194592,14.72696464,.00151315,98.3011,348.5214,126.3821,233.8784,0,U,28895,999,10531,.13420163E-3,.804E-5,0
HINODE (SOLAR-B),2006-041A,2026-07-11T23:38:34.088064,14.68655866,.0016778,98.0548,208.7721,204.9275,155.1121,0,U,29479,999,5851,.69282E-4,.355E-5,0
SHIJIAN-6 02B (SJ-6 02B),2006-046B,2026-07-12T04:55:26.288832,15.01433978,.001376,97.7156,222.1090,346.4794,13.6060,0,U,29506,999,7449,.42597E-4,.49E-5,0
DMSP 5D-3 F17 (USA 191),2006-050A,2026-07-12T04:50:06.301248,14.14996065,.0009896,98.7385,199.2603,351.6417,8.4590,0,U,29522,999,1596,.18985E-4,-.7E-7,0
LAPAN-TUBSAT,2007-001A,2026-07-12T05:40:38.320896,14.85977407,.0013615,98.1352,193.0262,102.2930,257.9809,0,U,29709,999,5487,.10016E-3,.818E-5,0
HAIYANG-1B,2007-010A,2026-07-11T19:50:17.174688,14.31032783,.00145476,98.3512,173.7181,125.1075,235.1475,0,U,31113,999,416,.31073115E-4,.4E-6,0
COSMO-SKYMED 2,2007-059A,2026-07-12T03:21:30.008160,14.82149079,.0001437,97.8891,16.3767,93.2700,266.8678,0,U,32376,999,570,.31642E-4,.2E-5,0
CARTOSAT-2A,2008-021A,2026-07-12T01:47:03.950592,14.79272644,.0012712,97.7627,240.9317,36.6013,323.6065,0,U,32783,999,98248,-.25609E-5,-.69E-6,0
CUTE-1.7+APD II (CO-65),2008-021C,2026-07-12T04:07:50.710080,15.09682301,.0007285,97.8286,175.1161,311.6931,48.3673,0,U,32785,999,98896,.19866E-3,.3133E-4,0
SEEDS II (CO-66),2008-021J,2026-07-11T13:05:02.149728,15.33584480,.00026852,97.7522,191.6211,165.1600,194.9721,0,U,32791,999,99102,.34002086E-3,.1096E-3,0
YUBILEINY (RS30),2008-025A,2026-07-12T04:58:58.412928,12.43180928,.001856,82.5053,339.8750,255.9543,103.9474,0,U,32953,999,82280,.5012E-3,.79E-6,0
FENGYUN 3A,2008-026A,2026-07-11T20:34:47.275104,14.19576043,.00097491,98.6887,133.2298,60.4614,299.7533,0,U,32958,999,93890,.28345038E-4,.16E-6,0
HUANJING 1A (HJ-1A),2008-041A,2026-07-12T04:21:16.943040,14.84045404,.0020508,97.6692,178.0550,58.8311,301.4911,0,U,33320,999,96211,.14163E-3,.1133E-4,0
HUANJING 1B (HJ-1B),2008-041B,2026-07-12T05:30:24.163776,14.83361242,.0037912,97.6529,181.1969,100.5056,260.0433,0,U,33321,999,96212,.44816E-4,.32E-5,0
SHIJIAN-6 03A (SJ-6 03A),2008-053A,2026-07-12T04:12:25.380864,15.17398945,.0009624,97.8404,227.3667,288.0279,71.9905,0,U,33408,999,96675,.13035E-3,.2534E-4,0
SHIJIAN-6 03B (SJ-6 03B),2008-053B,2026-07-12T04:13:43.782816,15.04377865,.0017977,97.8582,213.4819,322.0102,37.9855,0,U,33409,999,96650,.51198E-4,.651E-5,0
