SAUDISAT 2              
1 28371U 04025F   26192.82569430  .00000120  00000+0  37868-4 0  9997
2 28371  98.5518 193.4453 0023900 218.7819 141.1664 14.56697171169330
COSMOS 2407             
1 28380U 04028A   26192.71129897  .00000040  00000+0  25310-4 0  9997
2 28380  82.9588  56.6682 0039067 181.8019 243.1850 13.76336372103254
COSMOS 2414             
1 28521U 05002A   26192.97559022  .00000061  00000+0  38145-4 0  9995
2 28521  82.9486  24.8912 0038701 258.3745 101.3074 13.87928061 87259
INMARSAT 4-F1           
1 28628U 05009A   26192.74279605  .00000032  00000+0  00000+0 0  9993
2 28628   5.2002  42.7797 0002499  72.5823 259.7934  1.00270973 77916
SJ-7                    
1 28737U 05024A   26193.07806649  .00004474  00000+0  19931-3 0  9993
2 28737  97.7279 223.8554 0013840 308.7466  51.2532 15.21907713151819
CUBESAT XI-V            
1 28895U 05043F   26192.38715503  .00000804  00000+0  13420-3 0  9990
2 28895  98.3011 348.5214 0015131 126.3821 233.8784 14.72696464105311
HINODE (SOLAR-B)        
1 29479U 06041A   26192.98511676  .00000355  00000+0  69282-4 0  9998
2 29479  98.0548 208.7721 0016778 204.9275 155.1121 14.68655866 58512
SHIJIAN-6 02B (SJ-6 02B)
1 29506U 06046B   26193.20516538  .00000490  00000+0  42597-4 0  9992
2 29506  97.7156 222.1090 0013760 346.4794  13.6060 15.01433978 74490
DMSP 5D-3 F17 (USA 191) 
1 29522U 06050A   26193.20146182 -.00000007  00000+0  18985-4 0  9998
2 29522  98.7385 199.2603 0009896 351.6417   8.4590 14.14996065 15963
LAPAN-TUBSAT            
1 29709U 07001A   26193.23655464  .00000818  00000+0  10016-3 0  9998
2 29709  98.1352 193.0262 0013615 102.2930 257.9809 14.85977407 54879
HAIYANG-1B              
1 31113U 07010A   26192.82658767  .00000040  00000+0  31073-4 0  9997
2 31113  98.3512 173.7181 0014547 125.1075 235.1475 14.31032783  4169
COSMO-SKYMED 2          
1 32376U 07059A   26193.13993065  .00000200  00000+0  31642-4 0  9990
2 32376  97.8891  16.3767 0001437  93.2700 266.8678 14.82149079  5701
CARTOSAT-2A             
1 32783U 08021A   26193.07435128 -.00000069  00000+0 -25609-5 0  9998
2 32783  97.7627 240.9317 0012712  36.6013 323.6065 14.79272644982483
CUTE-1.7+APD II (CO-65) 
1 32785U 08021C   26193.17211470  .00003133  00000+0  19866-3 0  9992
2 32785  97.8286 175.1161 0007285 311.6931  48.3673 15.09682301988961
SEEDS II (CO-66)        
1 32791U 08021J   26192.54516377  .00010960  00000+0  34002-3 0  9998
2 32791  97.7522 191.6211 0002685 165.1600 194.9721 15.33584480991022
YUBILEINY (RS30)        
1 32953U 08025A   26193.20762052  .00000079  00000+0  50120-3 0  9998
2 32953  82.5053 339.8750 0018560 255.9543 103.9474 12.43180928822801
FENGYUN 3A              
1 32958U 08026A   26192.85749161  .00000016  00000+0  28345-4 0  9996
2 32958  98.6887 133.2298 0009749  60.4614 299.7533 14.19576043938900
HUANJING 1A (HJ-1A)     
1 33320U 08041A   26193.18144610  .00001133  00000+0  14163-3 0  9995
2 33320  97.6692 178.0550 0020508  58.8311 301.4911 14.84045404962111
HUANJING 1B (HJ-1B)     
1 33321U 08041B   26193.22944634  .00000320  00000+0  44816-4 0  9991
2 33321  97.6529 181.1969 0037912 100.5056 260.0433 14.83361242962128
SHIJIAN-6 03A (SJ-6 03A)
1 33408U 08053A   26193.17529376  .00002534  00000+0  13035-3 0  9993
2 33408  97.8404 227.3667 0009624 288.0279  71.9905 15.17398945966758
SHIJIAN-6 03B (SJ-6 03B)
1 33409U 08053B   26193.17620119  .00000651  00000+0  51198-4 0  9992
2 33409  97.8582 213.4819 0017977 322.0102  37.9855 15.04377865966508
